OBJECT_NAME,OBJECT_ID,EPOCH,MEAN_MOTION,ECCENTRICITY,INCLINATION,RA_OF_ASC_NODE,ARG_OF_PERICENTER,MEAN_ANOMALY,EPHEMERIS_TYPE,CLASSIFICATION_TYPE,NORAD_CAT_ID,ELEMENT_SET_NO,REV_AT_EPOCH,BSTAR,MEAN_MOTION_DOT,MEAN_MOTION_DDOT
LEMUR-2-ALISIA,2025-009DB,2026-06-17T17:38:15.167328,15.02775304,.00020946,97.6951,250.9012,191.5594,168.5584,0,U,62706,999,10024,.43424708E-3,.5749E-4,0
LEMUR-2-ROUNDTRIPPER,2025-009DG,2026-06-18T05:23:54.725280,15.03806481,.0005469,97.7254,251.9027,127.4423,232.7301,0,U,62711,999,7778,.4875087E-3,.6643E-4,0
LEMUR-2-MYNAMEISJEFF,2025-009DH,2026-06-18T05:21:36.888768,15.03811900,.00036929,97.7301,252.2829,148.3642,211.7806,0,U,62712,999,7778,.46160626E-3,.6287E-4,0
LEMUR-2-LEIA-PHILIP,2025-052AN,2026-06-17T16:06:26.531424,14.97320431,.00026073,97.6839,60.6142,208.3934,151.7147,0,U,63246,999,6874,.60622787E-4,.646E-5,0
LEMUR-2-LIA-MARTIN,2025-052AQ,2026-06-17T22:38:18.146112,14.97808124,.00029496,97.6891,61.3581,155.6525,204.4837,0,U,63248,999,6879,.25056017E-3,.2886E-4,0
LEMUR-2-DELOITTE-1,2025-052BB,2026-06-17T15:39:35.911008,14.97607945,.00034286,97.6921,61.3999,96.1635,263.9978,0,U,63259,999,6876,.32929559E-3,.3792E-4,0
LEMUR-2-EMERSONROSE,2025-052BD,2026-06-17T15:03:11.179008,14.99081964,.00017494,97.6883,61.9349,68.0009,292.1400,0,U,63261,999,6880,.24364992E-3,.29E-4,0
LEMUR-2-MARACHE-FRAN,2025-052BE,2026-06-17T22:27:29.403936,15.00108576,.0005292,97.6939,62.5574,20.2899,339.8534,0,U,63262,999,6887,.34655603E-3,.4264E-4,0
LEMUR-2-THEFALCONER,2025-052BG,2026-06-17T22:42:34.855200,14.97392645,.00025555,97.6858,61.3093,31.4057,328.7317,0,U,63264,999,6880,.21180354E-3,.2404E-4,0
LEMUR-2-UNTITLED-SC,2025-061A,2026-06-17T21:10:11.535744,15.13481060,.00169338,97.5636,144.2387,261.8675,98.0635,0,U,63351,999,6769,.19566442E-3,.3445E-4,0
LEMUR-2-ESPERANZA,2025-061B,2026-06-17T22:12:24.222240,15.13575219,.00165266,97.5644,144.3752,261.0420,98.8940,0,U,63352,999,6770,.17070234E-3,.3004E-4,0
LEMUR-2-KREMPEL-BRO2,2025-061C,2026-06-18T00:26:07.001376,15.14011856,.00175049,97.5691,145.0017,252.3719,107.5601,0,U,63353,999,6773,.19235398E-3,.3438E-4,0
LEMUR-2-THERMORAPTOR,2025-061D,2026-06-17T20:49:53.852160,15.14091452,.00172087,97.5697,144.9284,251.6410,108.2950,0,U,63354,999,6771,.19453366E-3,.3485E-4,0
LEMUR-2-NEUROSPICY,2025-061E,2026-06-18T04:04:49.886976,15.14206783,.00150397,97.5625,144.8541,254.2984,105.6588,0,U,63355,999,6776,.15979282E-3,.2857E-4,0
LEMUR-2-TILLINFINITY,2025-061F,2026-06-17T20:59:27.016800,15.14792061,.00163963,97.5607,144.8515,242.2346,117.7224,0,U,63356,999,6774,.20081108E-3,.3671E-4,0
LEMUR-2-KREMPEL-BRO1,2025-061G,2026-06-18T04:17:02.997888,15.14598203,.00170307,97.5611,145.0694,242.7348,117.2149,0,U,63357,999,6778,.15465578E-3,.2796E-4,0
LEMUR-2-LANGER2SPACE,2025-061H,2026-06-18T00:10:02.481024,15.14294983,.00149643,97.5615,144.7127,253.0905,106.8687,0,U,63358,999,6774,.20131908E-3,.3627E-4,0
LEMUR-2-BALTO,2025-052BH,2026-06-17T15:41:14.274816,15.00091660,.00069055,97.6897,62.2564,56.5220,303.6663,0,U,63395,999,6883,.40030664E-3,.4934E-4,0
LEMUR-2-KRISH,2025-135AK,2026-06-17T21:02:42.086400,14.96215808,.00017541,97.7756,283.7481,98.5776,261.5644,0,U,64561,999,5402,.40376914E-3,.4496E-4,0
LEMUR-2-HUBBLE-4,2025-135AP,2026-06-18T06:36:50.019552,14.93200969,.00009255,97.7701,283.1682,299.1365,60.9762,0,U,64565,999,5403,.13186145E-3,.1321E-4,0
LEMUR-2-SEJONG-2,2025-135BL,2026-06-18T07:23:09.992256,14.96702156,.00037419,97.7688,284.3206,333.7071,26.3960,0,U,64586,999,5411,.27940072E-3,.3132E-4,0
LEMUR-2-HUBBLE-5,2025-135BT,2026-06-18T07:06:08.448768,14.94138215,.00050047,97.7720,283.8241,349.9433,10.1686,0,U,64840,999,5407,.86024176E-4,.863E-5,0
LEMUR-2-KARENDARRELL,2025-135BU,2026-06-18T06:03:04.140000,15.00122381,.0009753,97.7684,285.4580,197.8646,162.2236,0,U,64841,999,5417,.47810092E-3,.5911E-4,0
LEMUR-2-LUCILLE-ROSE,2025-135BV,2026-06-18T07:01:12.717984,15.00164541,.00112551,97.7766,285.5192,278.7265,81.2683,0,U,65403,999,4880,.38909958E-3,.4805E-4,0
LEMUR-2-AFFIE-WAUWIE,2025-248C,2026-06-18T05:35:43.635552,15.27172855,.00073236,45.3915,109.3214,91.1046,269.0682,0,U,66295,999,3475,.48277898E-3,.12828E-3,0
LEMUR-2-DEANANDMAEVE,2025-276N,2026-06-18T05:40:31.517760,15.19743170,.00056057,97.4209,242.6946,10.9926,349.1430,0,U,66678,999,3057,.23425792E-3,.4942E-4,0
LEMUR-2-STAS-GORBUK,2025-276W,2026-06-18T02:52:05.483424,15.19388998,.00049942,97.4243,242.6347,12.4772,347.6585,0,U,66686,999,3055,.19500362E-3,.4059E-4,0
LEMUR-2-TEODOR,2025-276DG,2026-06-18T02:27:16.112448,15.21058175,.00021669,97.4151,242.8551,115.7931,244.3529,0,U,66768,999,3058,.20571535E-3,.45E-4,0
LEMUR-2-LAILA,2025-276DQ,2026-06-18T03:24:14.013504,15.21280426,.00022761,97.4172,243.0154,134.4540,225.6882,0,U,66776,999,3059,.21453896E-3,.4727E-4,0
