LEMUR-2-ALISIA          
1 62706U 25009DB  26168.73489777  .00005749  00000+0  43425-3 0  9997
2 62706  97.6951 250.9012 0002094 191.5594 168.5584 15.02775304100246
LEMUR-2-ROUNDTRIPPER    
1 62711U 25009DG  26169.22493895  .00006643  00000+0  48751-3 0  9995
2 62711  97.7254 251.9027 0005469 127.4423 232.7301 15.03806481 77789
LEMUR-2-MYNAMEISJEFF    
1 62712U 25009DH  26169.22334362  .00006287  00000+0  46161-3 0  9996
2 62712  97.7301 252.2829 0003692 148.3642 211.7806 15.03811900 77787
LEMUR-2-LEIA-PHILIP     
1 63246U 25052AN  26168.67114041  .00000646  00000+0  60623-4 0  9998
2 63246  97.6839  60.6142 0002607 208.3934 151.7147 14.97320431 68743
LEMUR-2-LIA-MARTIN      
1 63248U 25052AQ  26168.94326558  .00002886  00000+0  25056-3 0  9996
2 63248  97.6891  61.3581 0002949 155.6525 204.4837 14.97808124 68794
LEMUR-2-DELOITTE-1      
1 63259U 25052BB  26168.65249897  .00003792  00000+0  32930-3 0  9992
2 63259  97.6921  61.3999 0003428  96.1635 263.9978 14.97607945 68768
LEMUR-2-EMERSONROSE     
1 63261U 25052BD  26168.62721272  .00002900  00000+0  24365-3 0  9997
2 63261  97.6883  61.9349 0001749  68.0009 292.1400 14.99081964 68808
LEMUR-2-MARACHE-FRAN    
1 63262U 25052BE  26168.93575699  .00004264  00000+0  34656-3 0  9991
2 63262  97.6939  62.5574 0005292  20.2899 339.8534 15.00108576 68878
LEMUR-2-THEFALCONER     
1 63264U 25052BG  26168.94623675  .00002404  00000+0  21180-3 0  9994
2 63264  97.6858  61.3093 0002555  31.4057 328.7317 14.97392645 68808
LEMUR-2-UNTITLED-SC     
1 63351U 25061A   26168.88207796  .00003445  00000+0  19566-3 0  9997
2 63351  97.5636 144.2387 0016933 261.8675  98.0635 15.13481060 67690
LEMUR-2-ESPERANZA       
1 63352U 25061B   26168.92528035  .00003004  00000+0  17070-3 0  9994
2 63352  97.5644 144.3752 0016526 261.0420  98.8940 15.13575219 67704
LEMUR-2-KREMPEL-BRO2    
1 63353U 25061C   26169.01813659  .00003438  00000+0  19235-3 0  9991
2 63353  97.5691 145.0017 0017504 252.3719 107.5601 15.14011856 67738
LEMUR-2-THERMORAPTOR    
1 63354U 25061D   26168.86798440  .00003485  00000+0  19453-3 0  9998
2 63354  97.5697 144.9284 0017208 251.6410 108.2950 15.14091452 67713
LEMUR-2-NEUROSPICY      
1 63355U 25061E   26169.17002184  .00002857  00000+0  15979-3 0  9998
2 63355  97.5625 144.8541 0015039 254.2984 105.6588 15.14206783 67763
LEMUR-2-TILLINFINITY    
1 63356U 25061F   26168.87461825  .00003671  00000+0  20081-3 0  9991
2 63356  97.5607 144.8515 0016396 242.2346 117.7224 15.14792061 67749
LEMUR-2-KREMPEL-BRO1    
1 63357U 25061G   26169.17850692  .00002796  00000+0  15466-3 0  9998
2 63357  97.5611 145.0694 0017030 242.7348 117.2149 15.14598203 67786
LEMUR-2-LANGER2SPACE    
1 63358U 25061H   26169.00697316  .00003627  00000+0  20132-3 0  9993
2 63358  97.5615 144.7127 0014964 253.0905 106.8687 15.14294983 67740
LEMUR-2-BALTO           
1 63395U 25052BH  26168.65363744  .00004934  00000+0  40031-3 0  9991
2 63395  97.6897  62.2564 0006905  56.5220 303.6663 15.00091660 68839
LEMUR-2-KRISH           
1 64561U 25135AK  26168.87687600  .00004496  00000+0  40377-3 0  9999
2 64561  97.7756 283.7481 0001754  98.5776 261.5644 14.96215808 54020
LEMUR-2-HUBBLE-4        
1 64565U 25135AP  26169.27557893  .00001321  00000+0  13186-3 0  9990
2 64565  97.7701 283.1682 0000925 299.1365  60.9762 14.93200969 54035
LEMUR-2-SEJONG-2        
1 64586U 25135BL  26169.30775454  .00003132  00000+0  27940-3 0  9997
2 64586  97.7688 284.3206 0003741 333.7071  26.3960 14.96702156 54118
LEMUR-2-HUBBLE-5        
1 64840U 25135BT  26169.29593112  .00000863  00000+0  86024-4 0  9994
2 64840  97.7720 283.8241 0005004 349.9433  10.1686 14.94138215 54074
LEMUR-2-KARENDARRELL    
1 64841U 25135BU  26169.25213125  .00005911  00000+0  47810-3 0  9992
2 64841  97.7684 285.4580 0009753 197.8646 162.2236 15.00122381 54175
LEMUR-2-LUCILLE-ROSE    
1 65403U 25135BV  26169.29250831  .00004805  00000+0  38910-3 0  9998
2 65403  97.7766 285.5192 0011255 278.7265  81.2683 15.00164541 48800
LEMUR-2-AFFIE-WAUWIE    
1 66295U 25248C   26169.23314393  .00012828  00000+0  48278-3 0  9993
2 66295  45.3915 109.3214 0007323  91.1046 269.0682 15.27172855 34758
LEMUR-2-DEANANDMAEVE    
1 66678U 25276N   26169.23647590  .00004942  00000+0  23426-3 0  9993
2 66678  97.4209 242.6946 0005605  10.9926 349.1430 15.19743170 30579
LEMUR-2-STAS-GORBUK     
1 66686U 25276W   26169.11950791  .00004059  00000+0  19500-3 0  9996
2 66686  97.4243 242.6347 0004994  12.4772 347.6585 15.19388998 30552
LEMUR-2-TEODOR          
1 66768U 25276DG  26169.10226982  .00004500  00000+0  20572-3 0  9996
2 66768  97.4151 242.8551 0002166 115.7931 244.3529 15.21058175 30581
LEMUR-2-LAILA           
1 66776U 25276DQ  26169.14182886  .00004727  00000+0  21454-3 0  9994
2 66776  97.4172 243.0154 0002276 134.4540 225.6882 15.21280426 30592
